[
  {
    "COMMENT": "GENERATED VIA SPACETRACK.ORG API",
    "ORIGINATOR": "18 SPCS",
    "NORAD_CAT_ID": "46469",
    "OBJECT_NAME": "HAIYANG 2C",
    "OBJECT_TYPE": "PAYLOAD",
    "CLASSIFICATION_TYPE": "U",
    "INTLDES": "20066A",
    "EPOCH": "2023-05-03 11:58:26",
    "EPOCH_MICROSECONDS": "350176",
    "MEAN_MOTION": "13.83368126",
    "ECCENTRICITY": "0.0007526",
    "INCLINATION": "65.9969",
    "RA_OF_ASC_NODE": "175.3523",
    "ARG_OF_PERICENTER": "297.701",
    "MEAN_ANOMALY": "62.3355",
    "EPHEMERIS_TYPE": "0",
    "ELEMENT_SET_NO": "999",
    "REV_AT_EPOCH": "13200",
    "BSTAR": "-0.00022267",
    "MEAN_MOTION_DOT": "-0.00000326",
    "MEAN_MOTION_DDOT": "0",
    "FILE": "3899641",
    "TLE_LINE0": "0 HAIYANG 2C",
    "TLE_LINE1": "1 46469U 20066A   23123.49891609 -.00000326  00000-0 -22267-3 0  9995",
    "TLE_LINE2": "2 46469  65.9969 175.3523 0007526 297.7010  62.3355 13.83368126132008",
    "OBJECT_ID": "2020-066A",
    "OBJECT_NUMBER": "46469",
    "SEMIMAJOR_AXIS": "7330.102",
    "PERIOD": "104.094",
    "APOGEE": "957.483",
    "PERIGEE": "946.450",
    "DECAYED": "0"
  },
  {
    "COMMENT": "GENERATED VIA SPACETRACK.ORG API",
    "ORIGINATOR": "18 SPCS",
    "NORAD_CAT_ID": "46469",
    "OBJECT_NAME": "HAIYANG 2C",
    "OBJECT_TYPE": "PAYLOAD",
    "CLASSIFICATION_TYPE": "U",
    "INTLDES": "20066A",
    "EPOCH": "2023-05-03 18:54:51",
    "EPOCH_MICROSECONDS": "361344",
    "MEAN_MOTION": "13.83369141",
    "ECCENTRICITY": "0.0007487",
    "INCLINATION": "65.9964",
    "RA_OF_ASC_NODE": "174.6315",
    "ARG_OF_PERICENTER": "298.7619",
    "MEAN_ANOMALY": "61.272",
    "EPHEMERIS_TYPE": "0",
    "ELEMENT_SET_NO": "999",
    "REV_AT_EPOCH": "13204",
    "BSTAR": "-0.0001165",
    "MEAN_MOTION_DOT": "-0.0000021",
    "MEAN_MOTION_DDOT": "0",
    "FILE": "3900124",
    "TLE_LINE0": "0 HAIYANG 2C",
    "TLE_LINE1": "1 46469U 20066A   23123.78809446 -.00000210  00000-0 -11650-3 0  9991",
    "TLE_LINE2": "2 46469  65.9964 174.6315 0007487 298.7619  61.2720 13.83369141132042",
    "OBJECT_ID": "2020-066A",
    "OBJECT_NUMBER": "46469",
    "SEMIMAJOR_AXIS": "7330.098",
    "PERIOD": "104.094",
    "APOGEE": "957.451",
    "PERIGEE": "946.475",
    "DECAYED": "0"
  },
  {
    "COMMENT": "GENERATED VIA SPACETRACK.ORG API",
    "ORIGINATOR": "18 SPCS",
    "NORAD_CAT_ID": "46469",
    "OBJECT_NAME": "HAIYANG 2C",
    "OBJECT_TYPE": "PAYLOAD",
    "CLASSIFICATION_TYPE": "U",
    "INTLDES": "20066A",
    "EPOCH": "2023-05-03 18:54:51",
    "EPOCH_MICROSECONDS": "361344",
    "MEAN_MOTION": "13.83369141",
    "ECCENTRICITY": "0.0007487",
    "INCLINATION": "65.9964",
    "RA_OF_ASC_NODE": "174.6315",
    "ARG_OF_PERICENTER": "298.7619",
    "MEAN_ANOMALY": "61.272",
    "EPHEMERIS_TYPE": "0",
    "ELEMENT_SET_NO": "999",
    "REV_AT_EPOCH": "13204",
    "BSTAR": "-0.0001165",
    "MEAN_MOTION_DOT": "-0.0000021",
    "MEAN_MOTION_DDOT": "0",
    "FILE": "3900281",
    "TLE_LINE0": "0 HAIYANG 2C",
    "TLE_LINE1": "1 46469U 20066A   23123.78809446 -.00000210  00000-0 -11650-3 0  9991",
    "TLE_LINE2": "2 46469  65.9964 174.6315 0007487 298.7619  61.2720 13.83369141132042",
    "OBJECT_ID": "2020-066A",
    "OBJECT_NUMBER": "46469",
    "SEMIMAJOR_AXIS": "7330.098",
    "PERIOD": "104.094",
    "APOGEE": "957.451",
    "PERIGEE": "946.475",
    "DECAYED": "0"
  },
  {
    "COMMENT": "GENERATED VIA SPACETRACK.ORG API",
    "ORIGINATOR": "18 SPCS",
    "NORAD_CAT_ID": "46469",
    "OBJECT_NAME": "HAIYANG 2C",
    "OBJECT_TYPE": "PAYLOAD",
    "CLASSIFICATION_TYPE": "U",
    "INTLDES": "20066A",
    "EPOCH": "2023-05-04 03:35:22",
    "EPOCH_MICROSECONDS": "755552",
    "MEAN_MOTION": "13.83369384",
    "ECCENTRICITY": "0.0007508",
    "INCLINATION": "65.9965",
    "RA_OF_ASC_NODE": "173.7316",
    "ARG_OF_PERICENTER": "298.7538",
    "MEAN_ANOMALY": "61.28",
    "EPHEMERIS_TYPE": "0",
    "ELEMENT_SET_NO": "999",
    "REV_AT_EPOCH": "13209",
    "BSTAR": "-0.000093501",
    "MEAN_MOTION_DOT": "-0.00000184",
    "MEAN_MOTION_DDOT": "0",
    "FILE": "3900359",
    "TLE_LINE0": "0 HAIYANG 2C",
    "TLE_LINE1": "1 46469U 20066A   23124.14956893 -.00000184  00000-0 -93501-4 0  9997",
    "TLE_LINE2": "2 46469  65.9965 173.7316 0007508 298.7538  61.2800 13.83369384132091",
    "OBJECT_ID": "2020-066A",
    "OBJECT_NUMBER": "46469",
    "SEMIMAJOR_AXIS": "7330.097",
    "PERIOD": "104.094",
    "APOGEE": "957.466",
    "PERIGEE": "946.459",
    "DECAYED": "0"
  },
  {
    "COMMENT": "GENERATED VIA SPACETRACK.ORG API",
    "ORIGINATOR": "18 SPCS",
    "NORAD_CAT_ID": "46469",
    "OBJECT_NAME": "HAIYANG 2C",
    "OBJECT_TYPE": "PAYLOAD",
    "CLASSIFICATION_TYPE": "U",
    "INTLDES": "20066A",
    "EPOCH": "2023-05-04 08:47:41",
    "EPOCH_MICROSECONDS": "578080",
    "MEAN_MOTION": "13.83369596",
    "ECCENTRICITY": "0.0007499",
    "INCLINATION": "65.9965",
    "RA_OF_ASC_NODE": "173.1916",
    "ARG_OF_PERICENTER": "298.3198",
    "MEAN_ANOMALY": "61.7135",
    "EPHEMERIS_TYPE": "0",
    "ELEMENT_SET_NO": "999",
    "REV_AT_EPOCH": "13212",
    "BSTAR": "-0.000069985",
    "MEAN_MOTION_DOT": "-0.00000158",
    "MEAN_MOTION_DDOT": "0",
    "FILE": "3900652",
    "TLE_LINE0": "0 HAIYANG 2C",
    "TLE_LINE1": "1 46469U 20066A   23124.36645345 -.00000158  00000-0 -69985-4 0  9998",
    "TLE_LINE2": "2 46469  65.9965 173.1916 0007499 298.3198  61.7135 13.83369596132123",
    "OBJECT_ID": "2020-066A",
    "OBJECT_NUMBER": "46469",
    "SEMIMAJOR_AXIS": "7330.096",
    "PERIOD": "104.094",
    "APOGEE": "957.458",
    "PERIGEE": "946.465",
    "DECAYED": "0"
  },
  {
    "COMMENT": "GENERATED VIA SPACETRACK.ORG API",
    "ORIGINATOR": "18 SPCS",
    "NORAD_CAT_ID": "46469",
    "OBJECT_NAME": "HAIYANG 2C",
    "OBJECT_TYPE": "PAYLOAD",
    "CLASSIFICATION_TYPE": "U",
    "INTLDES": "20066A",
    "EPOCH": "2023-05-04 14:00:00",
    "EPOCH_MICROSECONDS": "403200",
    "MEAN_MOTION": "13.83369859",
    "ECCENTRICITY": "0.000748",
    "INCLINATION": "65.9963",
    "RA_OF_ASC_NODE": "172.6514",
    "ARG_OF_PERICENTER": "298.4042",
    "MEAN_ANOMALY": "61.6293",
    "EPHEMERIS_TYPE": "0",
    "ELEMENT_SET_NO": "999",
    "REV_AT_EPOCH": "13215",
    "BSTAR": "-0.000045126",
    "MEAN_MOTION_DOT": "-0.00000131",
    "MEAN_MOTION_DDOT": "0",
    "FILE": "3900892",
    "TLE_LINE0": "0 HAIYANG 2C",
    "TLE_LINE1": "1 46469U 20066A   23124.58333800 -.00000131  00000-0 -45126-4 0  9994",
    "TLE_LINE2": "2 46469  65.9963 172.6514 0007480 298.4042  61.6293 13.83369859132157",
    "OBJECT_ID": "2020-066A",
    "OBJECT_NUMBER": "46469",
    "SEMIMAJOR_AXIS": "7330.096",
    "PERIOD": "104.094",
    "APOGEE": "957.443",
    "PERIGEE": "946.478",
    "DECAYED": "0"
  },
  {
    "COMMENT": "GENERATED VIA SPACETRACK.ORG API",
    "ORIGINATOR": "18 SPCS",
    "NORAD_CAT_ID": "46469",
    "OBJECT_NAME": "HAIYANG 2C",
    "OBJECT_TYPE": "PAYLOAD",
    "CLASSIFICATION_TYPE": "U",
    "INTLDES": "20066A",
    "EPOCH": "2023-05-04 15:44:06",
    "EPOCH_MICROSECONDS": "652320",
    "MEAN_MOTION": "13.83369952",
    "ECCENTRICITY": "0.0007497",
    "INCLINATION": "65.9963",
    "RA_OF_ASC_NODE": "172.4715",
    "ARG_OF_PERICENTER": "298.5914",
    "MEAN_ANOMALY": "61.4405",
    "EPHEMERIS_TYPE": "0",
    "ELEMENT_SET_NO": "999",
    "REV_AT_EPOCH": "13216",
    "BSTAR": "-0.000037345",
    "MEAN_MOTION_DOT": "-0.00000122",
    "MEAN_MOTION_DDOT": "0",
    "FILE": "3900979",
    "TLE_LINE0": "0 HAIYANG 2C",
    "TLE_LINE1": "1 46469U 20066A   23124.65563255 -.00000122  00000-0 -37345-4 0  9995",
    "TLE_LINE2": "2 46469  65.9963 172.4715 0007497 298.5914  61.4405 13.83369952132163",
    "OBJECT_ID": "2020-066A",
    "OBJECT_NUMBER": "46469",
    "SEMIMAJOR_AXIS": "7330.095",
    "PERIOD": "104.094",
    "APOGEE": "957.456",
    "PERIGEE": "946.465",
    "DECAYED": "0"
  },
  {
    "COMMENT": "GENERATED VIA SPACETRACK.ORG API",
    "ORIGINATOR": "18 SPCS",
    "NORAD_CAT_ID": "46469",
    "OBJECT_NAME": "HAIYANG 2C",
    "OBJECT_TYPE": "PAYLOAD",
    "CLASSIFICATION_TYPE": "U",
    "INTLDES": "20066A",
    "EPOCH": "2023-05-04 15:44:06",
    "EPOCH_MICROSECONDS": "652320",
    "MEAN_MOTION": "13.83369952",
    "ECCENTRICITY": "0.0007497",
    "INCLINATION": "65.9963",
    "RA_OF_ASC_NODE": "172.4715",
    "ARG_OF_PERICENTER": "298.5914",
    "MEAN_ANOMALY": "61.4405",
    "EPHEMERIS_TYPE": "0",
    "ELEMENT_SET_NO": "999",
    "REV_AT_EPOCH": "13216",
    "BSTAR": "-0.000037345",
    "MEAN_MOTION_DOT": "-0.00000122",
    "MEAN_MOTION_DDOT": "0",
    "FILE": "3901186",
    "TLE_LINE0": "0 HAIYANG 2C",
    "TLE_LINE1": "1 46469U 20066A   23124.65563255 -.00000122  00000-0 -37345-4 0  9995",
    "TLE_LINE2": "2 46469  65.9963 172.4715 0007497 298.5914  61.4405 13.83369952132163",
    "OBJECT_ID": "2020-066A",
    "OBJECT_NUMBER": "46469",
    "SEMIMAJOR_AXIS": "7330.095",
    "PERIOD": "104.094",
    "APOGEE": "957.456",
    "PERIGEE": "946.465",
    "DECAYED": "0"
  }
]